start=new Date('2022-06-05T00:00:00.000Z').valueOf();
sats=[{"TLE_LINE2":"2 49163  69.9991 139.0691 0003252 271.1141  88.9645 14.96711818 41782","OBJECT_TYPE":"PAYLOAD","COUNTRY_CODE":"US","FILE":"3480894","RA_OF_ASC_NODE":"139.0691","SITE":"AFWTR","RCS_SIZE":"LARGE","MEAN_MOTION_DOT":"0.00000518","EPHEMERIS_TYPE":"0","TIME_SYSTEM":"UTC","NORAD_CAT_ID":"49163","ELEMENT_SET_NO":"999","REV_AT_EPOCH":"4178","MEAN_MOTION":"14.96711818","PERIOD":"96.211","MEAN_MOTION_DDOT":"0.0000000000000","OBJECT_NAME":"STARLINK-3088","OBJECT_ID":"2021-082AK","CLASSIFICATION_TYPE":"U","MEAN_ANOMALY":"88.9645","APOAPSIS":"579.328","REF_FRAME":"TEME","GP_ID":"205352293","CENTER_NAME":"EARTH","SEMIMAJOR_AXIS":"6955.201","EPOCH":"2022-06-04T08:51:24.406272","DECAY_DATE":null,"TLE_LINE1":"1 49163U 21082AK  22155.36903248  .00000518  00000-0  53253-4 0  9992","MEAN_ELEMENT_THEORY":"SGP4","ARG_OF_PERICENTER":"271.1141","INCLINATION":"69.9991","ECCENTRICITY":"0.00032520","BSTAR":"0.00005325300000","LAUNCH_DATE":"2021-09-14","PERIAPSIS":"574.805"},{"OBJECT_ID":"2021-082AL","APOAPSIS":"579.382","MEAN_ANOMALY":"83.1316","CLASSIFICATION_TYPE":"U","GP_ID":"205352043","REF_FRAME":"TEME","DECAY_DATE":null,"EPOCH":"2022-06-04T10:13:36.553728","SEMIMAJOR_AXIS":"6955.156","CENTER_NAME":"EARTH","TLE_LINE1":"1 49164U 21082AL  22155.42611752  .00000859  00000-0  83024-4 0  9993","ECCENTRICITY":"0.00033940","INCLINATION":"69.9986","ARG_OF_PERICENTER":"276.9456","MEAN_ELEMENT_THEORY":"SGP4","PERIAPSIS":"574.661","LAUNCH_DATE":"2021-09-14","BSTAR":"0.00008302400000","FILE":"3480894","COUNTRY_CODE":"US","TLE_LINE2":"2 49164  69.9986 138.9135 0003394 276.9456  83.1316 14.96726455 41805","OBJECT_TYPE":"PAYLOAD","RA_OF_ASC_NODE":"138.9135","SITE":"AFWTR","RCS_SIZE":"LARGE","EPHEMERIS_TYPE":"0","MEAN_MOTION_DOT":"0.00000859","NORAD_CAT_ID":"49164","TIME_SYSTEM":"UTC","REV_AT_EPOCH":"4180","ELEMENT_SET_NO":"999","PERIOD":"96.210","OBJECT_NAME":"STARLINK-3106","MEAN_MOTION_DDOT":"0.0000000000000","MEAN_MOTION":"14.96726455"},{"OBJECT_ID":"2021-082AM","CLASSIFICATION_TYPE":"U","MEAN_ANOMALY":"86.6037","APOAPSIS":"574.297","REF_FRAME":"TEME","GP_ID":"205353295","CENTER_NAME":"EARTH","SEMIMAJOR_AXIS":"6950.228","EPOCH":"2022-06-04T09:58:00.412320","DECAY_DATE":null,"TLE_LINE1":"1 49165U 21082AM  22155.41528255  .00000437  00000-0  44442-4 0  9991","MEAN_ELEMENT_THEORY":"SGP4","ARG_OF_PERICENTER":"273.4760","INCLINATION":"69.9990","ECCENTRICITY":"0.00031710","BSTAR":"0.00004444200000","LAUNCH_DATE":"2021-09-14","PERIAPSIS":"569.890","TLE_LINE2":"2 49165  69.9990 159.4753 0003171 273.4760  86.6037 14.98318509 41322","OBJECT_TYPE":"PAYLOAD","FILE":"3480894","COUNTRY_CODE":"US","RA_OF_ASC_NODE":"159.4753","SITE":"AFWTR","RCS_SIZE":"LARGE","MEAN_MOTION_DOT":"0.00000437","EPHEMERIS_TYPE":"0","TIME_SYSTEM":"UTC","NORAD_CAT_ID":"49165","ELEMENT_SET_NO":"999","REV_AT_EPOCH":"4132","PERIOD":"96.108","OBJECT_NAME":"STARLINK-3052","MEAN_MOTION_DDOT":"0.0000000000000","MEAN_MOTION":"14.98318509"},{"SITE":"AFWTR","RCS_SIZE":"LARGE","TLE_LINE2":"2 49166  69.9978 139.0725 0002997 265.5742  94.5074 14.96708440 41828","OBJECT_TYPE":"PAYLOAD","COUNTRY_CODE":"US","FILE":"3480894","RA_OF_ASC_NODE":"139.0725","ELEMENT_SET_NO":"999","REV_AT_EPOCH":"4182","PERIOD":"96.211","MEAN_MOTION":"14.96708440","MEAN_MOTION_DDOT":"0.0000000000000","OBJECT_NAME":"STARLINK-3089","MEAN_MOTION_DOT":"0.00000749","EPHEMERIS_TYPE":"0","NORAD_CAT_ID":"49166","TIME_SYSTEM":"UTC","GP_ID":"205353045","REF_FRAME":"TEME","OBJECT_ID":"2021-082AN","APOAPSIS":"579.161","CLASSIFICATION_TYPE":"U","MEAN_ANOMALY":"94.5074","INCLINATION":"69.9978","ARG_OF_PERICENTER":"265.5742","ECCENTRICITY":"0.00029970","MEAN_ELEMENT_THEORY":"SGP4","PERIAPSIS":"574.992","BSTAR":"0.00007340700000","LAUNCH_DATE":"2021-09-14","EPOCH":"2022-06-04T08:44:24.646560","DECAY_DATE":null,"CENTER_NAME":"EARTH","SEMIMAJOR_AXIS":"6955.212","TLE_LINE1":"1 49166U 21082AN  22155.36417415  .00000749  00000-0  73407-4 0  9990"},{"EPHEMERIS_TYPE":"0","MEAN_MOTION_DOT":"0.00000544","TIME_SYSTEM":"UTC","NORAD_CAT_ID":"49167","REV_AT_EPOCH":"4132","ELEMENT_SET_NO":"999","PERIOD":"96.107","MEAN_MOTION_DDOT":"0.0000000000000","OBJECT_NAME":"STARLINK-3054","MEAN_MOTION":"14.98324230","COUNTRY_CODE":"US","FILE":"3480894","OBJECT_TYPE":"PAYLOAD","TLE_LINE2":"2 49167  69.9986 159.4944 0003211 269.5016  90.5775 14.98324230 41327","RA_OF_ASC_NODE":"159.4944","SITE":"AFWTR","RCS_SIZE":"LARGE","SEMIMAJOR_AXIS":"6950.211","CENTER_NAME":"EARTH","DECAY_DATE":null,"EPOCH":"2022-06-04T09:51:09.220032","TLE_LINE1":"1 49167U 21082AP  22155.41052338  .00000544  00000-0  53431-4 0  9994","MEAN_ELEMENT_THEORY":"SGP4","ECCENTRICITY":"0.00032110","INCLINATION":"69.9986","ARG_OF_PERICENTER":"269.5016","LAUNCH_DATE":"2021-09-14","BSTAR":"0.00005343100000","PERIAPSIS":"569.844","OBJECT_ID":"2021-082AP","MEAN_ANOMALY":"90.5775","CLASSIFICATION_TYPE":"U","APOAPSIS":"574.307","REF_FRAME":"TEME","GP_ID":"205351793"},{"SITE":"AFWTR","RCS_SIZE":"LARGE","OBJECT_TYPE":"PAYLOAD","TLE_LINE2":"2 49168  69.9986 139.1147 0003104 268.5100  91.5702 14.96715899 41821","COUNTRY_CODE":"US","FILE":"3480894","RA_OF_ASC_NODE":"139.1147","ELEMENT_SET_NO":"999","REV_AT_EPOCH":"4182","PERIOD":"96.211","OBJECT_NAME":"STARLINK-3101","MEAN_MOTION_DDOT":"0.0000000000000","MEAN_MOTION":"14.96715899","MEAN_MOTION_DOT":"-0.00000982","EPHEMERIS_TYPE":"0","TIME_SYSTEM":"UTC","NORAD_CAT_ID":"49168","REF_FRAME":"TEME","GP_ID":"205352544","OBJECT_ID":"2021-082AQ","CLASSIFICATION_TYPE":"U","MEAN_ANOMALY":"91.5702","APOAPSIS":"579.213","MEAN_ELEMENT_THEORY":"SGP4","ARG_OF_PERICENTER":"268.5100","INCLINATION":"69.9986","ECCENTRICITY":"0.00031040","BSTAR":"-0.00007781000000","LAUNCH_DATE":"2021-09-14","PERIAPSIS":"574.895","CENTER_NAME":"EARTH","SEMIMAJOR_AXIS":"6955.189","EPOCH":"2022-06-04T08:23:21.778368","DECAY_DATE":null,"TLE_LINE1":"1 49168U 21082AQ  22155.34955762 -.00000982  00000-0 -77810-4 0  9995"},{"MEAN_MOTION_DOT":"0.00000694","EPHEMERIS_TYPE":"0","TIME_SYSTEM":"UTC","NORAD_CAT_ID":"49169","ELEMENT_SET_NO":"999","REV_AT_EPOCH":"4062","MEAN_MOTION_DDOT":"0.0000000000000","PERIOD":"96.211","MEAN_MOTION":"14.96716220","OBJECT_NAME":"STARLINK-3046","TLE_LINE2":"2 49169  69.9988 139.1010 0003095 266.0541  94.0264 14.96716220 40621","OBJECT_TYPE":"PAYLOAD","FILE":"3480894","COUNTRY_CODE":"US","RA_OF_ASC_NODE":"139.1010","SITE":"AFWTR","RCS_SIZE":"LARGE","CENTER_NAME":"EARTH","SEMIMAJOR_AXIS":"6955.188","EPOCH":"2022-06-04T08:30:22.558464","DECAY_DATE":null,"TLE_LINE1":"1 49169U 21082AR  22155.35442776  .00000694  00000-0  68646-4 0  9998","MEAN_ELEMENT_THEORY":"SGP4","INCLINATION":"69.9988","ARG_OF_PERICENTER":"266.0541","ECCENTRICITY":"0.00030950","BSTAR":"0.00006864600000","LAUNCH_DATE":"2021-09-14","PERIAPSIS":"574.900","OBJECT_ID":"2021-082AR","CLASSIFICATION_TYPE":"U","MEAN_ANOMALY":"94.0264","APOAPSIS":"579.205","REF_FRAME":"TEME","GP_ID":"205352795"},{"CENTER_NAME":"EARTH","SEMIMAJOR_AXIS":"6950.211","EPOCH":"2022-06-04T10:49:58.734336","DECAY_DATE":null,"TLE_LINE1":"1 49170U 21082AS  22155.45137424  .00000624  00000-0  60087-4 0  9996","MEAN_ELEMENT_THEORY":"SGP4","ARG_OF_PERICENTER":"272.6673","INCLINATION":"69.9978","ECCENTRICITY":"0.00033560","BSTAR":"0.00006008700000","LAUNCH_DATE":"2021-09-14","PERIAPSIS":"569.744","OBJECT_ID":"2021-082AS","CLASSIFICATION_TYPE":"U","MEAN_ANOMALY":"87.4102","APOAPSIS":"574.409","REF_FRAME":"TEME","GP_ID":"205353546","MEAN_MOTION_DOT":"0.00000624","EPHEMERIS_TYPE":"0","TIME_SYSTEM":"UTC","NORAD_CAT_ID":"49170","ELEMENT_SET_NO":"999","REV_AT_EPOCH":"4013","MEAN_MOTION":"14.98324029","PERIOD":"96.107","MEAN_MOTION_DDOT":"0.0000000000000","OBJECT_NAME":"STARLINK-3074","TLE_LINE2":"2 49170  69.9978 159.3866 0003356 272.6673  87.4102 14.98324029 40131","OBJECT_TYPE":"PAYLOAD","FILE":"3480894","COUNTRY_CODE":"US","RA_OF_ASC_NODE":"159.3866","SITE":"AFWTR","RCS_SIZE":"LARGE"},{"TLE_LINE1":"1 49171U 21082AT  22155.40366837  .00000535  00000-0  52628-4 0  9997","DECAY_DATE":null,"EPOCH":"2022-06-04T09:41:16.947168","SEMIMAJOR_AXIS":"6950.178","CENTER_NAME":"EARTH","PERIAPSIS":"569.863","LAUNCH_DATE":"2021-09-14","BSTAR":"0.00005262800000","ECCENTRICITY":"0.00031370","INCLINATION":"69.9981","ARG_OF_PERICENTER":"275.9574","MEAN_ELEMENT_THEORY":"SGP4","APOAPSIS":"574.224","MEAN_ANOMALY":"84.1228","CLASSIFICATION_TYPE":"U","OBJECT_ID":"2021-082AT","GP_ID":"205352294","REF_FRAME":"TEME","NORAD_CAT_ID":"49171","TIME_SYSTEM":"UTC","EPHEMERIS_TYPE":"0","MEAN_MOTION_DOT":"0.00000535","PERIOD":"96.107","MEAN_MOTION_DDOT":"0.0000000000000","OBJECT_NAME":"STARLINK-3107","MEAN_MOTION":"14.98334694","REV_AT_EPOCH":"4128","ELEMENT_SET_NO":"999","RA_OF_ASC_NODE":"159.5133","COUNTRY_CODE":"US","FILE":"3480894","OBJECT_TYPE":"PAYLOAD","TLE_LINE2":"2 49171  69.9981 159.5133 0003137 275.9574  84.1228 14.98334694 41287","RCS_SIZE":"LARGE","SITE":"AFWTR"},{"APOAPSIS":"579.154","CLASSIFICATION_TYPE":"U","MEAN_ANOMALY":"88.2100","OBJECT_ID":"2021-082AU","GP_ID":"205352044","REF_FRAME":"TEME","TLE_LINE1":"1 49172U 21082AU  22155.39143953  .00000467  00000-0  48840-4 0  9993","EPOCH":"2022-06-04T09:23:40.375392","DECAY_DATE":null,"CENTER_NAME":"EARTH","SEMIMAJOR_AXIS":"6955.224","PERIAPSIS":"575.024","BSTAR":"0.00004884000000","LAUNCH_DATE":"2021-09-14","INCLINATION":"69.9984","ARG_OF_PERICENTER":"271.8718","ECCENTRICITY":"0.00029690","MEAN_ELEMENT_THEORY":"SGP4","RA_OF_ASC_NODE":"139.0152","OBJECT_TYPE":"PAYLOAD","TLE_LINE2":"2 49172  69.9984 139.0152 0002969 271.8718  88.2100 14.96704681 40628","COUNTRY_CODE":"US","FILE":"3480894","RCS_SIZE":"LARGE","SITE":"AFWTR","NORAD_CAT_ID":"49172","TIME_SYSTEM":"UTC","MEAN_MOTION_DOT":"0.00000467","EPHEMERIS_TYPE":"0","PERIOD":"96.211","MEAN_MOTION_DDOT":"0.0000000000000","OBJECT_NAME":"STARLINK-3091","MEAN_MOTION":"14.96704681","ELEMENT_SET_NO":"999","REV_AT_EPOCH":"4062"}];
